ECHOSTAR 25             
1 68126U 26045A   26169.58794234  .00000000  00000+0  00000+0 0  9994
2 68126   0.0193  12.6365 0001833  74.5333 281.3215  1.00268393  1006
